0 COSMOS 1823 DEB
1 18725U 87020C   13281.92566213  .00000042  00000-0  44373-3 0  1665
2 18725 073.7686 356.0715 0074023 353.5877 119.6656 12.37985051165965
0 COSMOS 1823 DEB
1 18725U 87020C   13284.16907326  .00000055  00000-0  54482-3 0  1675
2 18725 073.7685 353.1097 0074082 350.3529 037.9814 12.37985038166244
0 COSMOS 1823 DEB
1 18725U 87020C   13286.19656797  .00000085  00000-0  77430-3 0  1685
2 18725 073.7682 350.4330 0074127 347.4287 074.0162 12.37985263166494
0 COSMOS 1823 DEB
1 18725U 87020C   13288.54055708  .00000095  00000-0  84773-3 0  1691
2 18725 073.7677 347.3386 0074197 344.0386 080.5964 12.37985735166782
0 COSMOS 1823 DEB
1 18725U 87020C   13290.65006477  .00000062  00000-0  59619-3 0  1702
2 18725 073.7672 344.5534 0074251 340.9954 122.1450 12.37986309167049
0 COSMOS 1823 DEB
1 18725U 87020C   13292.83546419  .00000048  00000-0  49303-3 0  1713
2 18725 073.7669 341.6677 0074293 337.8531 141.9192 12.37986666167311
0 COSMOS 1823 DEB
1 18725U 87020C   13295.16427545  .00000033  00000-0  38084-3 0  1729
2 18725 073.7667 338.5926 0074324 334.5120 080.8393 12.37986965167602
